STARLINK-32517          
1 61980U 24210X   26068.35006430  .00033061  00000+0  12058-2 0  9996
2 61980  42.9999 182.1168 0001233 267.5380  92.5331 15.27572420 74778
LIME                    
1 62648U 25009AR  26068.73906781  .00013254  00000+0  47723-3 0  9995
2 62648  97.3985 151.4831 0001635  35.9029 324.2320 15.28703313 63766
